{
    "links": {
        "self": "http://www.neowsapp.com/rest/v1/neo/3819677?api_key=iIulBulltgU6a56xZRHN4H3l9WmuAYTsLGpBGhQ2"
    },
    "id": "3819677",
    "neo_reference_id": "3819677",
    "name": "(2018 JB)",
    "designation": "2018 JB",
    "nasa_jpl_url": "http://ssd.jpl.nasa.gov/sbdb.cgi?sstr=3819677",
    "absolute_magnitude_h": 26.0,
    "estimated_diameter": {
        "kilometers": {
            "estimated_diameter_min": 0.0167708462,
            "estimated_diameter_max": 0.0375007522
        },
        "meters": {
            "estimated_diameter_min": 16.7708462163,
            "estimated_diameter_max": 37.5007521798
        },
        "miles": {
            "estimated_diameter_min": 0.0104209175,
            "estimated_diameter_max": 0.0233018799
        },
        "feet": {
            "estimated_diameter_min": 55.0224631002,
            "estimated_diameter_max": 123.0339677816
        }
    },
    "is_potentially_hazardous_asteroid": false,
    "close_approach_data": [
        {
            "close_approach_date": "2018-05-06",
            "close_approach_date_full": "2018-May-06 23:21",
            "epoch_date_close_approach": 1525648860000,
            "relative_velocity": {
                "kilometers_per_second": "8.3244398737",
                "kilometers_per_hour": "29967.9835451667",
                "miles_per_hour": "18620.9395533843"
            },
            "miss_distance": {
                "astronomical": "0.0133553638",
                "lunar": "5.1952365182",
                "kilometers": "1997933.977555106",
                "miles": "1241458.6064522228"
            },
            "orbiting_body": "Earth"
        }
    ],
    "orbital_data": {
        "orbit_id": "3",
        "orbit_determination_date": "2018-05-07 06:25:07",
        "first_observation_date": "2018-05-04",
        "last_observation_date": "2018-05-07",
        "data_arc_in_days": 3,
        "observations_used": 20,
        "orbit_uncertainty": "7",
        "minimum_orbit_intersection": ".0130028",
        "jupiter_tisserand_invariant": "3.652",
        "epoch_osculation": "2459000.5",
        "eccentricity": ".5108142226199761",
        "semi_major_axis": "2.014201113496357",
        "inclination": "2.347374763450442",
        "ascending_node_longitude": "64.84017993857138",
        "orbital_period": "1044.125432838861",
        "perihelion_distance": ".9853185375054251",
        "perihelion_argument": "182.2847827653037",
        "aphelion_distance": "3.043083689487289",
        "perihelion_time": "2459306.770361072140",
        "mean_anomaly": "254.4022178578746",
        "mean_motion": ".3447861613917402",
        "equinox": "J2000",
        "orbit_class": {
            "orbit_class_type": "APO",
            "orbit_class_description": "Near-Earth asteroid orbits which cross the Earth’s orbit similar to that of 1862 Apollo",
            "orbit_class_range": "a (semi-major axis) > 1.0 AU; q (perihelion) < 1.017 AU"
        }
    },
    "is_sentry_object": false
}